CCSDS_OMM_VERS = 2.0
CREATION_DATE  = 
ORIGINATOR     = 

OBJECT_NAME    = UNKNOWN
OBJECT_ID      = 
CENTER_NAME    = EARTH
REF_FRAME      = TEME
TIME_SYSTEM    = UTC
MEAN_ELEMENT_THEORY = SGP/SGP4

EPOCH          = 2026-01-03T15:53:24.511200
MEAN_MOTION    = 14.35057989
ECCENTRICITY   = .0135707
INCLINATION    = 73.2830
RA_OF_ASC_NODE = 139.6999
ARG_OF_PERICENTER = 266.9001
MEAN_ANOMALY   = 104.0700

EPHEMERIS_TYPE = 0
CLASSIFICATION_TYPE = U
NORAD_CAT_ID   = 82524
ELEMENT_SET_NO = 999
REV_AT_EPOCH   = 58018
BSTAR          = .4658E-2
MEAN_MOTION_DOT = .14739E-3
MEAN_MOTION_DDOT = 0

CCSDS_OMM_VERS = 2.0
CREATION_DATE  = 
ORIGINATOR     = 

OBJECT_NAME    = UNKNOWN
OBJECT_ID      = 
CENTER_NAME    = EARTH
REF_FRAME      = TEME
TIME_SYSTEM    = UTC
MEAN_ELEMENT_THEORY = SGP/SGP4

EPOCH          = 2025-12-30T00:06:39.134304
MEAN_MOTION    = 13.41124446
ECCENTRICITY   = .0239354
INCLINATION    = 99.7894
RA_OF_ASC_NODE = 86.8562
ARG_OF_PERICENTER = 198.4776
MEAN_ANOMALY   = 339.9026

EPHEMERIS_TYPE = 0
CLASSIFICATION_TYPE = U
NORAD_CAT_ID   = 82529
ELEMENT_SET_NO = 999
REV_AT_EPOCH   = 59205
BSTAR          = .95118E-3
MEAN_MOTION_DOT = .58E-5
MEAN_MOTION_DDOT = 0

CCSDS_OMM_VERS = 2.0
CREATION_DATE  = 
ORIGINATOR     = 

OBJECT_NAME    = UNKNOWN
OBJECT_ID      = 
CENTER_NAME    = EARTH
REF_FRAME      = TEME
TIME_SYSTEM    = UTC
MEAN_ELEMENT_THEORY = SGP/SGP4

EPOCH          = 2025-12-28T15:05:05.225280
MEAN_MOTION    = 13.90689818
ECCENTRICITY   = .0010358
INCLINATION    = 99.9907
RA_OF_ASC_NODE = 306.3587
ARG_OF_PERICENTER = 271.2339
MEAN_ANOMALY   = 268.1289

EPHEMERIS_TYPE = 0
CLASSIFICATION_TYPE = U
NORAD_CAT_ID   = 82560
ELEMENT_SET_NO = 999
REV_AT_EPOCH   = 61407
BSTAR          = .13735E-2
MEAN_MOTION_DOT = .1664E-4
MEAN_MOTION_DDOT = 0

CCSDS_OMM_VERS = 2.0
CREATION_DATE  = 
ORIGINATOR     = 

OBJECT_NAME    = UNKNOWN
OBJECT_ID      = 
CENTER_NAME    = EARTH
REF_FRAME      = TEME
TIME_SYSTEM    = UTC
MEAN_ELEMENT_THEORY = SGP/SGP4

EPOCH          = 2025-12-23T02:09:14.496768
MEAN_MOTION    = 14.35768617
ECCENTRICITY   = .0098191
INCLINATION    = 66.7703
RA_OF_ASC_NODE = 120.7388
ARG_OF_PERICENTER = 299.9298
MEAN_ANOMALY   = 59.2079

EPHEMERIS_TYPE = 0
CLASSIFICATION_TYPE = U
NORAD_CAT_ID   = 82597
ELEMENT_SET_NO = 999
REV_AT_EPOCH   = 63046
BSTAR          = .66057E-3
MEAN_MOTION_DOT = .1933E-4
MEAN_MOTION_DDOT = 0

CCSDS_OMM_VERS = 2.0
CREATION_DATE  = 
ORIGINATOR     = 

OBJECT_NAME    = UNKNOWN
OBJECT_ID      = 
CENTER_NAME    = EARTH
REF_FRAME      = TEME
TIME_SYSTEM    = UTC
MEAN_ELEMENT_THEORY = SGP/SGP4

EPOCH          = 2025-12-26T07:54:47.585088
MEAN_MOTION    = 14.49415290
ECCENTRICITY   = .003824
INCLINATION    = 74.0257
RA_OF_ASC_NODE = 218.1300
ARG_OF_PERICENTER = 159.9483
MEAN_ANOMALY   = 200.3190

EPHEMERIS_TYPE = 0
CLASSIFICATION_TYPE = U
NORAD_CAT_ID   = 82617
ELEMENT_SET_NO = 999
REV_AT_EPOCH   = 63879
BSTAR          = .15414E-3
MEAN_MOTION_DOT = .567E-5
MEAN_MOTION_DDOT = 0

CCSDS_OMM_VERS = 2.0
CREATION_DATE  = 
ORIGINATOR     = 

OBJECT_NAME    = UNKNOWN
OBJECT_ID      = 
CENTER_NAME    = EARTH
REF_FRAME      = TEME
TIME_SYSTEM    = UTC
MEAN_ELEMENT_THEORY = SGP/SGP4

EPOCH          = 2026-01-03T08:46:08.153760
MEAN_MOTION    = 13.16337211
ECCENTRICITY   = .0012977
INCLINATION    = 82.4753
RA_OF_ASC_NODE = 233.2110
ARG_OF_PERICENTER = 32.2817
MEAN_ANOMALY   = 92.2920

EPHEMERIS_TYPE = 0
CLASSIFICATION_TYPE = U
NORAD_CAT_ID   = 82627
ELEMENT_SET_NO = 999
REV_AT_EPOCH   = 58167
BSTAR          = .24952E-2
MEAN_MOTION_DOT = .963E-5
MEAN_MOTION_DDOT = 0

CCSDS_OMM_VERS = 2.0
CREATION_DATE  = 
ORIGINATOR     = 

OBJECT_NAME    = UNKNOWN
OBJECT_ID      = 
CENTER_NAME    = EARTH
REF_FRAME      = TEME
TIME_SYSTEM    = UTC
MEAN_ELEMENT_THEORY = SGP/SGP4

EPOCH          = 2025-12-30T13:30:38.742624
MEAN_MOTION    = 14.07270644
ECCENTRICITY   = .0134526
INCLINATION    = 98.9750
RA_OF_ASC_NODE = 274.9863
ARG_OF_PERICENTER = 187.0061
MEAN_ANOMALY   = 172.9230

EPHEMERIS_TYPE = 0
CLASSIFICATION_TYPE = U
NORAD_CAT_ID   = 82642
ELEMENT_SET_NO = 999
REV_AT_EPOCH   = 61864
BSTAR          = .89851E-3
MEAN_MOTION_DOT = .1593E-4
MEAN_MOTION_DDOT = 0

CCSDS_OMM_VERS = 2.0
CREATION_DATE  = 
ORIGINATOR     = 

OBJECT_NAME    = UNKNOWN
OBJECT_ID      = 
CENTER_NAME    = EARTH
REF_FRAME      = TEME
TIME_SYSTEM    = UTC
MEAN_ELEMENT_THEORY = SGP/SGP4

EPOCH          = 2026-01-02T23:13:35.721120
MEAN_MOTION    = 14.20184832
ECCENTRICITY   = .0209669
INCLINATION    = 98.1715
RA_OF_ASC_NODE = 75.3242
ARG_OF_PERICENTER = 334.0208
MEAN_ANOMALY   = 25.0562

EPHEMERIS_TYPE = 0
CLASSIFICATION_TYPE = U
NORAD_CAT_ID   = 82683
ELEMENT_SET_NO = 999
REV_AT_EPOCH   = 46528
BSTAR          = .76794E-3
MEAN_MOTION_DOT = .2001E-4
MEAN_MOTION_DDOT = 0

CCSDS_OMM_VERS = 2.0
CREATION_DATE  = 
ORIGINATOR     = 

OBJECT_NAME    = UNKNOWN
OBJECT_ID      = 
CENTER_NAME    = EARTH
REF_FRAME      = TEME
TIME_SYSTEM    = UTC
MEAN_ELEMENT_THEORY = SGP/SGP4

EPOCH          = 2025-12-27T04:07:33.360960
MEAN_MOTION    = 13.69589402
ECCENTRICITY   = .0045461
INCLINATION    = 100.5299
RA_OF_ASC_NODE = 326.0100
ARG_OF_PERICENTER = 347.9533
MEAN_ANOMALY   = 12.0519

EPHEMERIS_TYPE = 0
CLASSIFICATION_TYPE = U
NORAD_CAT_ID   = 82693
ELEMENT_SET_NO = 999
REV_AT_EPOCH   = 55573
BSTAR          = .37457E-2
MEAN_MOTION_DOT = .3241E-4
MEAN_MOTION_DDOT = 0

CCSDS_OMM_VERS = 2.0
CREATION_DATE  = 
ORIGINATOR     = 

OBJECT_NAME    = UNKNOWN
OBJECT_ID      = 
CENTER_NAME    = EARTH
REF_FRAME      = TEME
TIME_SYSTEM    = UTC
MEAN_ELEMENT_THEORY = SGP/SGP4

EPOCH          = 2026-01-02T22:32:02.618880
MEAN_MOTION    = 13.29530012
ECCENTRICITY   = .068528
INCLINATION    = 61.6135
RA_OF_ASC_NODE = 93.7056
ARG_OF_PERICENTER = 297.5024
MEAN_ANOMALY   = 55.7936

EPHEMERIS_TYPE = 0
CLASSIFICATION_TYPE = U
NORAD_CAT_ID   = 82698
ELEMENT_SET_NO = 999
REV_AT_EPOCH   = 54119
BSTAR          = .24446E-2
MEAN_MOTION_DOT = .415E-4
MEAN_MOTION_DDOT = 0

CCSDS_OMM_VERS = 2.0
CREATION_DATE  = 
ORIGINATOR     = 

OBJECT_NAME    = UNKNOWN
OBJECT_ID      = 
CENTER_NAME    = EARTH
REF_FRAME      = TEME
TIME_SYSTEM    = UTC
MEAN_ELEMENT_THEORY = SGP/SGP4

EPOCH          = 2025-12-25T01:01:28.667424
MEAN_MOTION    = 12.90592150
ECCENTRICITY   = .0063016
INCLINATION    = 102.1623
RA_OF_ASC_NODE = 203.3844
ARG_OF_PERICENTER = 263.8404
MEAN_ANOMALY   = 95.5505

EPHEMERIS_TYPE = 0
CLASSIFICATION_TYPE = U
NORAD_CAT_ID   = 82708
ELEMENT_SET_NO = 999
REV_AT_EPOCH   = 52510
BSTAR          = .36526E-2
MEAN_MOTION_DOT = .918E-5
MEAN_MOTION_DDOT = 0

CCSDS_OMM_VERS = 2.0
CREATION_DATE  = 
ORIGINATOR     = 

OBJECT_NAME    = UNKNOWN
OBJECT_ID      = 
CENTER_NAME    = EARTH
REF_FRAME      = TEME
TIME_SYSTEM    = UTC
MEAN_ELEMENT_THEORY = SGP/SGP4

EPOCH          = 2025-12-26T14:53:32.841600
MEAN_MOTION    = 12.17757215
ECCENTRICITY   = .0832302
INCLINATION    = 67.9646
RA_OF_ASC_NODE = 121.8956
ARG_OF_PERICENTER = 1.3678
MEAN_ANOMALY   = 358.9333

EPHEMERIS_TYPE = 0
CLASSIFICATION_TYPE = U
NORAD_CAT_ID   = 82729
ELEMENT_SET_NO = 999
REV_AT_EPOCH   = 53689
BSTAR          = .1569E-2
MEAN_MOTION_DOT = .431E-5
MEAN_MOTION_DDOT = 0

